     3.04           N: GNSS NAV DATA    R: GLONASS          RINEX VERSION / TYPE
CHC                 CHC                 20221020 113151 UTC PGM / RUN BY / DATE 
    18                                                      LEAP SECONDS        
                                                            END OF HEADER       
R01 2022 10 20 11 45  0  1.65263190866D-05  0.00000000000D+00  4.15200000000D+04
      9.38392968750D+03 -5.50270080566D-03  0.00000000000D+00  0.00000000000D+00
      1.23358154297D+04  2.77504158020D+00 -9.31322574615D-10  1.00000000000D+00
      2.02552524414D+04 -1.68619346619D+00 -1.86264514923D-09  0.00000000000D+00
R06 2022 10 20 10 15  0 -7.59679824114D-05 -1.81898940355D-12  3.60000000000D+04
     -1.30582729492D+04  5.36000251770D-01 -2.79396772385D-09  0.00000000000D+00
      2.06332690430D+04 -8.60213279724D-01  0.00000000000D+00 -4.00000000000D+00
     -7.34751269531D+03 -3.37852191925D+00  0.00000000000D+00  0.00000000000D+00
R07 2022 10 20 11 15  0  4.28799539804D-05  0.00000000000D+00  3.96000000000D+04
     -5.90134423828D+03  2.28842735291D-01 -1.86264514923D-09  0.00000000000D+00
      2.46359482422D+04 -3.38741302490D-01  0.00000000000D+00  5.00000000000D+00
     -2.70203662109D+03 -3.55206298828D+00 -9.31322574615D-10  0.00000000000D+00
R08 2022 10 20 11 15  0 -6.76978379488D-05  0.00000000000D+00  3.96000000000D+04
      2.35709472656D+03 -1.98000907898D-01 -9.31322574615D-10  0.00000000000D+00
      2.16547617187D+04  1.80708026886D+00 -9.31322574615D-10  6.00000000000D+00
      1.32948349609D+04 -2.92205619812D+00 -1.86264514923D-09  0.00000000000D+00
R09 2022 10 20 10 45  0  8.30534845591D-05  1.81898940355D-12  3.78000000000D+04
     -1.06869121094D+04 -2.13170719147D+00 -9.31322574615D-10  0.00000000000D+00
      4.98458935547D+03 -2.23961448669D+00  0.00000000000D+00 -2.00000000000D+00
      2.26315449219D+04 -5.20787239075D-01 -1.86264514923D-09  0.00000000000D+00
R10 2022 10 20 11 15  0 -8.70646908879D-05  0.00000000000D+00  3.96000000000D+04
     -1.47618701172D+03 -2.31499290466D+00 -9.31322574615D-10  0.00000000000D+00
      1.25490190430D+04 -1.96127128601D+00 -9.31322574615D-10 -7.00000000000D+00
      2.21418374023D+04  9.63854789734D-01 -2.79396772385D-09  0.00000000000D+00
R11 2022 10 20 11 15  0  2.40281224251D-05 -9.09494701773D-13  3.96000000000D+04
      1.40617436523D+04 -1.05046367645D+00  0.00000000000D+00  0.00000000000D+00
      1.83106142578D+04 -1.06258201599D+00 -1.86264514923D-09  0.00000000000D+00
      1.08755268555D+04  3.14941978455D+00 -9.31322574615D-10  0.00000000000D+00
R10 2022 10 20 11 45  0 -8.70656222105D-05  0.00000000000D+00  4.17900000000D+04
     -5.99870068359D+03 -2.67171192169D+00 -9.31322574615D-10  0.00000000000D+00
      9.25225878906D+03 -1.66748332977D+00  0.00000000000D+00 -7.00000000000D+00
      2.29974267578D+04 -1.91650390625D-02 -2.79396772385D-09  0.00000000000D+00
R08 2022 10 20 11 45  0 -6.76978379488D-05  0.00000000000D+00  4.27800000000D+04
      2.30119482422D+03  1.02485656738D-01 -1.86264514923D-09  0.00000000000D+00
      2.42418657227D+04  1.03948402405D+00  0.00000000000D+00  6.00000000000D+00
      7.58946240234D+03 -3.37622642517D+00 -1.86264514923D-09  0.00000000000D+00
R11 2022 10 20 11 45  0  2.40262597799D-05 -9.09494701773D-13  4.27800000000D+04
      1.14957021484D+04 -1.79531383514D+00  0.00000000000D+00  0.00000000000D+00
      1.61723647461D+04 -1.26853084564D+00 -9.31322574615D-10  0.00000000000D+00
      1.60515068359D+04  2.56440353394D+00 -1.86264514923D-09  0.00000000000D+00
R12 2022 10 20 11 45  0  2.21757218242D-05  0.00000000000D+00  4.27800000000D+04
      2.18348750000D+04  2.66872406006D-01  0.00000000000D+00  0.00000000000D+00
      1.30719433594D+04 -1.00231170654D-02 -1.86264514923D-09 -1.00000000000D+00
     -1.57269970703D+03  3.55896949768D+00  0.00000000000D+00  0.00000000000D+00
R01 2022 10 20 12 15  0  1.65263190866D-05  0.00000000000D+00  4.32000000000D+04
      9.70591503906D+03  3.37698936462D-01 -9.31322574615D-10  0.00000000000D+00
      1.68801503906D+04  2.23361968994D+00  0.00000000000D+00  1.00000000000D+00
      1.64761254883D+04 -2.48554897308D+00 -1.86264514923D-09  0.00000000000D+00
R08 2022 10 20 12 15  0 -6.76987692714D-05  0.00000000000D+00  4.32000000000D+04
      2.59069531250D+03  1.78809165955D-01 -1.86264514923D-09  0.00000000000D+00
      2.53278535156D+04  1.57420158386D-01  0.00000000000D+00  6.00000000000D+00
      1.29719531250D+03 -3.56978034973D+00 -9.31322574615D-10  0.00000000000D+00
R10 2022 10 20 12 15  0 -8.70665535331D-05  0.00000000000D+00  4.32000000000D+04
     -1.09372167969D+04 -2.76788234711D+00 -9.31322574615D-10  0.00000000000D+00
      6.64342187500D+03 -1.21227359772D+00  0.00000000000D+00 -7.00000000000D+00
      2.20745024414D+04 -9.99441146851D-01 -1.86264514923D-09  0.00000000000D+00
R11 2022 10 20 12 15  0  2.40253284574D-05 -9.09494701773D-13  4.32000000000D+04
      7.65215771484D+03 -2.45127201080D+00 -9.31322574615D-10  0.00000000000D+00
      1.39018945313D+04 -1.21267414093D+00 -9.31322574615D-10  0.00000000000D+00
      1.99883696289D+04  1.78154659271D+00 -1.86264514923D-09  0.00000000000D+00
R12 2022 10 20 12 15  0  2.21766531467D-05  0.00000000000D+00  4.32300000000D+04
      2.16130190430D+04 -5.29690742493D-01  0.00000000000D+00  0.00000000000D+00
      1.26573715820D+04 -4.13234710693D-01 -1.86264514923D-09 -1.00000000000D+00
      4.81146337891D+03  3.48844528198D+00 -9.31322574615D-10  0.00000000000D+00
